EUTELSAT 8 WEST B       
1 40875U 15039B   26027.06840701 -.00000056  00000+0  00000+0 0  9995
2 40875   0.0679  20.2933 0003992 286.0880 196.5795  1.00271029 38243
EUTELSAT 9B             
1 41310U 16005A   26027.21444117  .00000071  00000+0  00000+0 0  9998
2 41310   0.0219  53.7071 0004770 242.2266 276.7219  1.00270445 36701
EUTELSAT 65 WEST A      
1 41382U 16014A   26027.19970776 -.00000266  00000+0  00000+0 0  9996
2 41382   0.0700 309.9106 0002385 353.4912 189.7581  1.00269448 36125
EUTELSAT 117 WEST B     
1 41589U 16038B   26027.11815397 -.00000001  00000+0  00000+0 0  9997
2 41589   0.0029 130.6445 0000171 284.8963 356.3937  1.00271576 35241
EUTELSAT 172B           
1 42741U 17029B   26027.25732290  .00000004  00000+0  00000+0 0  9996
2 42741   0.0272 123.7699 0000228 134.2020 133.1778  1.00271119 32313
EUTELSAT 7C             
1 44334U 19034B   26027.21400784  .00000058  00000+0  00000+0 0  9999
2 44334   0.0767 183.9592 0003459 107.8955 278.6398  1.00269825  5420
EUTELSAT 5 WEST B       
1 44624U 19067A   26027.21166782 -.00000033  00000+0  00000+0 0  9998
2 44624   0.1044 302.7614 0003173   5.4885 249.4091  1.00269238 23025
EUTELSAT KONNECT        
1 45027U 20005B   26027.21409450  .00000059  00000+0  00000+0 0  9999
2 45027   0.0662  95.2482 0001686 179.8418 295.6580  1.00270343 22923
